CCSDS_OMM_VERS = 2.0
CREATION_DATE  = 
ORIGINATOR     = 

OBJECT_NAME    = HTV-X1
OBJECT_ID      = 2025-241A
CENTER_NAME    = EARTH
REF_FRAME      = TEME
TIME_SYSTEM    = UTC
MEAN_ELEMENT_THEORY = SGP/SGP4

EPOCH          = 2026-03-30T03:02:37.934016
MEAN_MOTION    = 15.32482441
ECCENTRICITY   = .000724
INCLINATION    = 51.6383
RA_OF_ASC_NODE = 334.5767
ARG_OF_PERICENTER = 251.7860
MEAN_ANOMALY   = 108.2334

EPHEMERIS_TYPE = 0
CLASSIFICATION_TYPE = U
NORAD_CAT_ID   = 66174
ELEMENT_SET_NO = 999
REV_AT_EPOCH   = 2407
BSTAR          = .1043E-3
MEAN_MOTION_DOT = .2951E-4
MEAN_MOTION_DDOT = 0

CCSDS_OMM_VERS = 2.0
CREATION_DATE  = 
ORIGINATOR     = 

OBJECT_NAME    = SZ-21 MODULE
OBJECT_ID      = 2025-246C
CENTER_NAME    = EARTH
REF_FRAME      = TEME
TIME_SYSTEM    = UTC
MEAN_ELEMENT_THEORY = SGP/SGP4

EPOCH          = 2026-03-30T01:19:56.798400
MEAN_MOTION    = 15.70142049
ECCENTRICITY   = .0001949
INCLINATION    = 41.4737
RA_OF_ASC_NODE = 77.8431
ARG_OF_PERICENTER = 214.4344
MEAN_ANOMALY   = 145.6372

EPHEMERIS_TYPE = 0
CLASSIFICATION_TYPE = U
NORAD_CAT_ID   = 66515
ELEMENT_SET_NO = 999
REV_AT_EPOCH   = 2127
BSTAR          = .39517E-3
MEAN_MOTION_DOT = .49221E-3
MEAN_MOTION_DDOT = 0

CCSDS_OMM_VERS = 2.0
CREATION_DATE  = 
ORIGINATOR     = 

OBJECT_NAME    = SHENZHOU-22
OBJECT_ID      = 2025-272A
CENTER_NAME    = EARTH
REF_FRAME      = TEME
TIME_SYSTEM    = UTC
MEAN_ELEMENT_THEORY = SGP/SGP4

EPOCH          = 2026-03-28T23:18:08.263008
MEAN_MOTION    = 15.61596075
ECCENTRICITY   = .0003972
INCLINATION    = 41.4668
RA_OF_ASC_NODE = 90.7542
ARG_OF_PERICENTER = 51.5615
MEAN_ANOMALY   = 308.5580

EPHEMERIS_TYPE = 0
CLASSIFICATION_TYPE = U
NORAD_CAT_ID   = 66645
ELEMENT_SET_NO = 999
REV_AT_EPOCH   = 28085
BSTAR          = .17362E-3
MEAN_MOTION_DOT = .15046E-3
MEAN_MOTION_DDOT = 0

CCSDS_OMM_VERS = 2.0
CREATION_DATE  = 
ORIGINATOR     = 

OBJECT_NAME    = SOYUZ-MS 28
OBJECT_ID      = 2025-275A
CENTER_NAME    = EARTH
REF_FRAME      = TEME
TIME_SYSTEM    = UTC
MEAN_ELEMENT_THEORY = SGP/SGP4

EPOCH          = 2026-03-30T03:57:49.771296
MEAN_MOTION    = 15.48649502
ECCENTRICITY   = .0006182
INCLINATION    = 51.6344
RA_OF_ASC_NODE = 331.1363
ARG_OF_PERICENTER = 249.8594
MEAN_ANOMALY   = 110.1729

EPHEMERIS_TYPE = 0
CLASSIFICATION_TYPE = U
NORAD_CAT_ID   = 66664
ELEMENT_SET_NO = 999
REV_AT_EPOCH   = 55958
BSTAR          = .23377E-3
MEAN_MOTION_DOT = .12299E-3
MEAN_MOTION_DDOT = 0

CCSDS_OMM_VERS = 2.0
CREATION_DATE  = 
ORIGINATOR     = 

OBJECT_NAME    = DUPLEX
OBJECT_ID      = 1998-067XS
CENTER_NAME    = EARTH
REF_FRAME      = TEME
TIME_SYSTEM    = UTC
MEAN_ELEMENT_THEORY = SGP/SGP4

EPOCH          = 2026-03-29T22:24:55.683648
MEAN_MOTION    = 15.57578129
ECCENTRICITY   = .000304
INCLINATION    = 51.6302
RA_OF_ASC_NODE = 328.0938
ARG_OF_PERICENTER = 205.3120
MEAN_ANOMALY   = 154.7723

EPHEMERIS_TYPE = 0
CLASSIFICATION_TYPE = U
NORAD_CAT_ID   = 66906
ELEMENT_SET_NO = 999
REV_AT_EPOCH   = 1828
BSTAR          = .50515E-3
MEAN_MOTION_DOT = .37673E-3
MEAN_MOTION_DDOT = 0

CCSDS_OMM_VERS = 2.0
CREATION_DATE  = 
ORIGINATOR     = 

OBJECT_NAME    = ISS OBJECT XT
OBJECT_ID      = 1998-067XT
CENTER_NAME    = EARTH
REF_FRAME      = TEME
TIME_SYSTEM    = UTC
MEAN_ELEMENT_THEORY = SGP/SGP4

EPOCH          = 2026-03-30T01:00:00.466848
MEAN_MOTION    = 15.76980262
ECCENTRICITY   = .0006253
INCLINATION    = 51.6239
RA_OF_ASC_NODE = 321.2742
ARG_OF_PERICENTER = 212.1328
MEAN_ANOMALY   = 147.9292

EPHEMERIS_TYPE = 0
CLASSIFICATION_TYPE = U
NORAD_CAT_ID   = 66907
ELEMENT_SET_NO = 999
REV_AT_EPOCH   = 1838
BSTAR          = .16026E-2
MEAN_MOTION_DOT = .27397E-2
MEAN_MOTION_DDOT = 0

CCSDS_OMM_VERS = 2.0
CREATION_DATE  = 
ORIGINATOR     = 

OBJECT_NAME    = ISS OBJECT XU
OBJECT_ID      = 1998-067XU
CENTER_NAME    = EARTH
REF_FRAME      = TEME
TIME_SYSTEM    = UTC
MEAN_ELEMENT_THEORY = SGP/SGP4

EPOCH          = 2026-03-30T00:54:15.501888
MEAN_MOTION    = 15.77231369
ECCENTRICITY   = .0006488
INCLINATION    = 51.6244
RA_OF_ASC_NODE = 321.2426
ARG_OF_PERICENTER = 211.6504
MEAN_ANOMALY   = 148.4107

EPHEMERIS_TYPE = 0
CLASSIFICATION_TYPE = U
NORAD_CAT_ID   = 66908
ELEMENT_SET_NO = 999
REV_AT_EPOCH   = 1838
BSTAR          = .15861E-2
MEAN_MOTION_DOT = .274217E-2
MEAN_MOTION_DDOT = 0

CCSDS_OMM_VERS = 2.0
CREATION_DATE  = 
ORIGINATOR     = 

OBJECT_NAME    = SILVERSAT
OBJECT_ID      = 1998-067XV
CENTER_NAME    = EARTH
REF_FRAME      = TEME
TIME_SYSTEM    = UTC
MEAN_ELEMENT_THEORY = SGP/SGP4

EPOCH          = 2026-03-30T01:12:48.546432
MEAN_MOTION    = 15.82812364
ECCENTRICITY   = .0007441
INCLINATION    = 51.6206
RA_OF_ASC_NODE = 319.8153
ARG_OF_PERICENTER = 218.1968
MEAN_ANOMALY   = 141.8508

EPHEMERIS_TYPE = 0
CLASSIFICATION_TYPE = U
NORAD_CAT_ID   = 66909
ELEMENT_SET_NO = 999
REV_AT_EPOCH   = 1840
BSTAR          = .17961E-2
MEAN_MOTION_DOT = .407211E-2
MEAN_MOTION_DDOT = 0

CCSDS_OMM_VERS = 2.0
CREATION_DATE  = 
ORIGINATOR     = 

OBJECT_NAME    = ISS OBJECT XW
OBJECT_ID      = 1998-067XW
CENTER_NAME    = EARTH
REF_FRAME      = TEME
TIME_SYSTEM    = UTC
MEAN_ELEMENT_THEORY = SGP/SGP4

EPOCH          = 2026-03-30T01:11:55.466592
MEAN_MOTION    = 15.75441694
ECCENTRICITY   = .00066
INCLINATION    = 51.6227
RA_OF_ASC_NODE = 321.3222
ARG_OF_PERICENTER = 209.0405
MEAN_ANOMALY   = 151.0228

EPHEMERIS_TYPE = 0
CLASSIFICATION_TYPE = U
NORAD_CAT_ID   = 66910
ELEMENT_SET_NO = 999
REV_AT_EPOCH   = 1838
BSTAR          = .14855E-2
MEAN_MOTION_DOT = .236237E-2
MEAN_MOTION_DDOT = 0

CCSDS_OMM_VERS = 2.0
CREATION_DATE  = 
ORIGINATOR     = 

OBJECT_NAME    = ISS OBJECT XX
OBJECT_ID      = 1998-067XX
CENTER_NAME    = EARTH
REF_FRAME      = TEME
TIME_SYSTEM    = UTC
MEAN_ELEMENT_THEORY = SGP/SGP4

EPOCH          = 2026-03-30T01:11:48.556320
MEAN_MOTION    = 15.89992483
ECCENTRICITY   = .0009432
INCLINATION    = 51.6172
RA_OF_ASC_NODE = 318.2730
ARG_OF_PERICENTER = 222.9554
MEAN_ANOMALY   = 137.0716

EPHEMERIS_TYPE = 0
CLASSIFICATION_TYPE = U
NORAD_CAT_ID   = 66911
ELEMENT_SET_NO = 999
REV_AT_EPOCH   = 1841
BSTAR          = .19125E-2
MEAN_MOTION_DOT = .585789E-2
MEAN_MOTION_DDOT = .14316E-3

CCSDS_OMM_VERS = 2.0
CREATION_DATE  = 
ORIGINATOR     = 

OBJECT_NAME    = ISS OBJECT XY
OBJECT_ID      = 1998-067XY
CENTER_NAME    = EARTH
REF_FRAME      = TEME
TIME_SYSTEM    = UTC
MEAN_ELEMENT_THEORY = SGP/SGP4

EPOCH          = 2026-03-30T00:08:30.969600
MEAN_MOTION    = 15.67909669
ECCENTRICITY   = .0004509
INCLINATION    = 51.6265
RA_OF_ASC_NODE = 324.0610
ARG_OF_PERICENTER = 207.7928
MEAN_ANOMALY   = 152.2828

EPHEMERIS_TYPE = 0
CLASSIFICATION_TYPE = U
NORAD_CAT_ID   = 66912
ELEMENT_SET_NO = 999
REV_AT_EPOCH   = 1833
BSTAR          = .1188E-2
MEAN_MOTION_DOT = .135548E-2
MEAN_MOTION_DDOT = 0

CCSDS_OMM_VERS = 2.0
CREATION_DATE  = 
ORIGINATOR     = 

OBJECT_NAME    = KNACKSAT-2
OBJECT_ID      = 1998-067XZ
CENTER_NAME    = EARTH
REF_FRAME      = TEME
TIME_SYSTEM    = UTC
MEAN_ELEMENT_THEORY = SGP/SGP4

EPOCH          = 2026-03-30T01:35:16.183392
MEAN_MOTION    = 15.53540643
ECCENTRICITY   = .0010084
INCLINATION    = 51.6326
RA_OF_ASC_NODE = 330.4771
ARG_OF_PERICENTER = 259.9435
MEAN_ANOMALY   = 100.0418

EPHEMERIS_TYPE = 0
CLASSIFICATION_TYPE = U
NORAD_CAT_ID   = 67683
ELEMENT_SET_NO = 999
REV_AT_EPOCH   = 795
BSTAR          = .8216E-3
MEAN_MOTION_DOT = .53219E-3
MEAN_MOTION_DDOT = 0

